OBJECT_NAME,OBJECT_ID,EPOCH,MEAN_MOTION,ECCENTRICITY,INCLINATION,RA_OF_ASC_NODE,ARG_OF_PERICENTER,MEAN_ANOMALY,EPHEMERIS_TYPE,CLASSIFICATION_TYPE,NORAD_CAT_ID,ELEMENT_SET_NO,REV_AT_EPOCH,BSTAR,MEAN_MOTION_DOT,MEAN_MOTION_DDOT
ONEWEB-0362,2021-090K,2026-07-09T05:45:29.062080,13.19725966,.00023205,87.9189,300.5845,107.0306,253.1082,0,U,49288,999,22982,.82208699E-4,.46E-6,0
ONEWEB-0363,2021-090L,2026-07-11T04:17:37.576032,13.20771672,.0001836,87.9190,269.6590,93.8125,266.3218,0,U,49289,999,23347,-.17018E-4,.6E-7,0
ONEWEB-0364,2021-090M,2026-07-10T03:46:06.295584,13.20770141,.00021145,87.9189,269.8699,99.3429,260.7944,0,U,49290,999,23447,.87326184E-4,.48E-6,0
ONEWEB-0365,2021-090N,2026-07-10T07:27:35.953056,13.19716591,.00017661,87.9186,300.3667,128.4104,231.7188,0,U,49291,999,22947,.37615541E-2,.1519E-4,0
ONEWEB-0366,2021-090P,2026-07-10T04:40:57.629280,13.14501825,.00020388,87.8975,285.1218,100.5575,259.5784,0,U,49292,999,23058,-.4049754E-4,-.2E-7,0
ONEWEB-0367,2021-090Q,2026-07-11T04:16:24.637152,13.20773034,.0002268,87.9185,269.6609,103.7450,256.3935,0,U,49293,999,23299,.63265E-4,.39E-6,0
ONEWEB-0368,2021-090R,2026-07-10T04:00:40.813920,13.20771517,.00014744,87.9178,269.8701,113.5797,246.5492,0,U,49294,999,23401,.12464633E-3,.64E-6,0
ONEWEB-0369,2021-090S,2026-07-10T16:26:39.201216,13.19726389,.0001951,87.9181,300.2941,101.8234,258.3117,0,U,49295,999,22951,-.99222E-4,-.27E-6,0
ONEWEB-0370,2021-090T,2026-07-10T04:51:34.927776,13.20771624,.00023022,87.9188,269.8551,97.7685,262.3709,0,U,49296,999,23290,-.6422788E-4,-.13E-6,0
ONEWEB-0371,2021-090U,2026-07-10T16:38:01.189248,13.19724768,.0002068,87.9184,300.2883,98.3233,261.8134,0,U,49297,999,22955,-.59151E-4,-.11E-6,0
ONEWEB-0372,2021-090V,2026-07-10T04:36:48.497472,13.20773628,.0002056,87.9187,269.8585,101.2314,258.9051,0,U,49298,999,23287,.37396882E-4,.28E-6,0
ONEWEB-0373,2021-090W,2026-07-11T04:51:33.128928,13.20772667,.0002128,87.9185,269.6566,96.1395,263.9981,0,U,49299,999,23419,-.14476E-3,-.46E-6,0
ONEWEB-0374,2021-090X,2026-07-10T06:12:17.383392,13.14502596,.00016338,87.8980,285.1001,90.8626,269.2691,0,U,49300,999,23059,.5122391E-3,.203E-5,0
ONEWEB-0375,2021-090Y,2026-07-11T04:34:35.232384,13.20772765,.0001813,87.9187,269.6511,83.7951,276.3388,0,U,49301,999,23369,.52435E-5,.15E-6,0
ONEWEB-0376,2021-090Z,2026-07-10T16:35:44.480256,13.19725845,.0002054,87.9188,300.2876,104.1754,255.9607,0,U,49302,999,22955,-.10159E-3,-.28E-6,0
ONEWEB-0377,2021-090AA,2026-07-11T04:15:23.777856,13.20772484,.0001686,87.9210,269.6562,90.2010,269.9317,0,U,49303,999,23368,.3765E-3,.166E-5,0
ONEWEB-0378,2021-090AB,2026-07-11T04:44:29.967648,13.20771471,.0001963,87.9183,269.6557,96.9590,263.1767,0,U,49304,999,23295,-.15088E-3,-.48E-6,0
ONEWEB-0379,2021-090AC,2026-07-09T06:20:31.134336,13.14501939,.00018869,87.8976,285.3088,102.1027,258.0314,0,U,49305,999,23046,.46664491E-3,.186E-5,0
ONEWEB-0380,2021-090AD,2026-07-10T16:31:12.302112,13.19726361,.0002018,87.9182,300.2915,94.2723,265.8641,0,U,49306,999,22952,-.62451E-4,-.12E-6,0
ONEWEB-0381,2021-090AE,2026-07-11T04:10:19.681824,13.20773123,.0001897,87.9190,269.6611,91.7139,268.4211,0,U,49307,999,23299,.46202E-4,.32E-6,0
ONEWEB-0382,2021-090AF,2026-07-10T04:12:47.817216,13.20771662,.00017994,87.9183,269.8543,96.1327,264.0011,0,U,49308,999,23285,.17745636E-3,.85E-6,0
ONEWEB-0383,2021-090AG,2026-07-11T05:41:14.340192,13.14502424,.0001763,87.8979,284.9090,100.5556,259.5773,0,U,49309,999,23075,.54481E-3,.215E-5,0
ONEWEB-0384,2021-090AH,2026-07-10T03:55:23.521152,13.20813924,.00016043,87.9196,269.8999,96.7480,263.3836,0,U,49310,999,23286,.86825104E-4,.48E-6,0
ONEWEB-0385,2021-090AJ,2026-07-10T04:03:04.211136,13.20769588,.00019283,87.9188,269.8609,95.5653,264.5701,0,U,49311,999,23283,.85770087E-4,.48E-6,0
ONEWEB-0386,2021-090AK,2026-07-10T04:27:19.285632,13.20773378,.00018281,87.9185,269.8498,100.0586,260.0754,0,U,49312,999,23285,.49430037E-4,.33E-6,0
ONEWEB-0387,2021-090AL,2026-07-11T03:43:39.654048,13.20770926,.0002116,87.9178,269.6752,88.0851,272.0525,0,U,49313,999,23298,-.36893E-3,-.137E-5,0
ONEWEB-0388,2021-090AM,2026-07-08T20:44:09.099744,13.19726759,.00018254,87.9182,300.6525,98.7963,261.3377,0,U,49314,999,22927,.14024626E-3,.69E-6,0
ONEWEB-0389,2021-132A,2026-07-09T18:02:31.497216,13.17650403,.00018048,87.9135,1.3784,80.6110,279.5226,0,U,50469,999,22105,.25315501E-3,.111E-5,0
ONEWEB-0390,2021-132B,2026-07-10T10:29:05.269056,13.17649990,.00020872,87.9137,1.2430,90.8200,269.3171,0,U,50470,999,22114,.79780309E-4,.44E-6,0
ONEWEB-0391,2021-132C,2026-07-10T10:31:31.102752,13.17649387,.0002293,87.9144,1.2529,71.8638,288.2743,0,U,50471,999,22114,.15346477E-3,.72E-6,0
ONEWEB-0392,2021-132D,2026-07-10T09:25:54.950304,13.17650404,.00018631,87.9146,1.2320,79.0484,281.0857,0,U,50472,999,22117,.12930211E-4,.18E-6,0
ONEWEB-0393,2021-132E,2026-07-10T10:40:01.598016,13.17647133,.00018543,87.9130,1.2369,86.4481,273.6863,0,U,50473,999,22117,.8671973E-5,.16E-6,0
ONEWEB-0394,2021-132F,2026-07-09T15:12:07.776576,13.18684858,.00016879,87.9188,330.9787,94.1168,266.0157,0,U,50474,999,22455,.49894075E-4,.33E-6,0
ONEWEB-0395,2021-132G,2026-07-09T23:30:53.065440,13.11415541,.00020276,87.8875,16.5280,85.0118,275.1241,0,U,50475,999,21870,.88481687E-3,.326E-5,0
ONEWEB-0396,2021-132H,2026-07-09T15:02:26.330496,13.18686308,.00017559,87.9195,330.9924,94.3542,265.7791,0,U,50476,999,22459,-.40583663E-4,-.3E-7,0
ONEWEB-0397,2021-132J,2026-07-09T15:24:17.190432,13.18687139,.0001579,87.9199,330.9892,95.4343,264.6970,0,U,50477,999,22457,.11022704E-4,.17E-6,0
ONEWEB-0398,2021-132K,2026-07-10T11:33:33.873120,13.11418417,.0002153,87.8883,16.4203,89.5539,270.5836,0,U,50478,999,21866,-.29754E-3,-.93E-6,0
ONEWEB-0399,2021-132L,2026-07-09T11:25:45.168672,13.11417508,.00016728,87.8888,16.6316,74.1760,285.9552,0,U,50479,999,21852,-.11792445E-2,-.405E-5,0
ONEWEB-0400,2021-132M,2026-07-09T14:52:42.150720,13.18684526,.00020179,87.9192,330.9835,98.1142,262.0219,0,U,50480,999,22456,.17582686E-3,.82E-6,0
ONEWEB-0401,2021-132N,2026-07-10T08:21:38.640960,13.18686333,.00016774,87.9189,330.8368,104.3596,255.7723,0,U,50481,999,22466,.17194294E-3,.81E-6,0
ONEWEB-0402,2021-132P,2026-07-10T09:17:28.721472,13.18687205,.00014028,87.9187,330.8180,104.2573,255.8715,0,U,50482,999,22469,.42063766E-4,.29E-6,0
ONEWEB-0403,2021-132Q,2026-07-10T08:04:38.887680,13.18686252,.00018167,87.9189,330.8521,92.4719,267.6621,0,U,50483,999,22464,.16683635E-3,.79E-6,0
ONEWEB-0404,2021-132R,2026-07-10T23:36:14.451840,13.11414249,.0001935,87.8891,16.3298,78.3223,281.8122,0,U,50484,999,21881,-.28924E-4,.2E-7,0
ONEWEB-0405,2021-132S,2026-07-09T16:00:41.815296,13.18683913,.00023348,87.9190,330.9705,100.1253,260.0143,0,U,50485,999,22495,.14940135E-3,.72E-6,0
ONEWEB-0406,2021-132T,2026-07-10T08:11:55.530816,13.18686522,.00018622,87.9187,330.8513,80.9087,279.2255,0,U,50486,999,22467,.16690147E-3,.79E-6,0
ONEWEB-0407,2021-132U,2026-07-09T15:38:50.682336,13.18688005,.000188,87.9192,330.9814,103.9526,256.1815,0,U,50487,999,22452,.48733542E-4,.32E-6,0
ONEWEB-0409,2021-132V,2026-07-10T21:43:56.424288,13.11414289,.0002004,87.8885,16.3332,81.5893,278.5462,0,U,50488,999,21869,.12481E-3,.57E-6,0
ONEWEB-0412,2021-132W,2026-07-10T07:45:13.082976,13.18686715,.00015996,87.9188,330.8558,102.2493,257.8818,0,U,50489,999,22470,.88563732E-4,.48E-6,0
ONEWEB-0413,2021-132X,2026-07-10T07:52:30.204768,13.18687795,.00017239,87.9179,330.8515,106.0024,254.1298,0,U,50490,999,22464,.15869702E-3,.75E-6,0
ONEWEB-0414,2021-132Y,2026-07-09T15:07:17.462208,13.18686828,.00017226,87.9191,330.9741,97.6650,262.4678,0,U,50491,999,22458,.12092435E-3,.61E-6,0
ONEWEB-0417,2021-132Z,2026-07-10T09:32:02.920128,13.18686802,.00019034,87.9182,330.8400,89.6892,270.4458,0,U,50492,999,22466,-.5548438E-5,.11E-6,0
ONEWEB-0418,2021-132AA,2026-07-10T07:57:09.235296,13.18686090,.00019443,87.9186,330.8538,89.1636,270.9718,0,U,50493,999,22471,.1489616E-3,.72E-6,0
ONEWEB-0419,2021-132AB,2026-07-10T08:24:26.722656,13.18666076,.00021472,87.9190,330.8507,94.3444,265.7934,0,U,50494,999,22463,.78979586E-4,.44E-6,0
ONEWEB-0420,2021-132AC,2026-07-10T09:22:19.206912,13.18687255,.00019254,87.9183,330.8430,104.2690,255.8656,0,U,50495,999,22463,.29253148E-4,.24E-6,0
ONEWEB-0421,2021-132AD,2026-07-10T09:12:38.445984,13.18686083,.00014903,87.9186,330.8428,96.3888,263.7414,0,U,50496,999,22467,.23170835E-4,.22E-6,0
ONEWEB-0424,2021-132AE,2026-07-10T08:16:47.267328,13.18686471,.00022382,87.9187,330.8497,94.9393,265.1994,0,U,50497,999,22469,.13837448E-3,.67E-6,0
ONEWEB-0426,2021-132AF,2026-07-09T14:53:56.382144,13.18685785,.00015012,87.9187,330.9851,74.1664,285.9633,0,U,50498,999,22454,.9790068E-5,.17E-6,0
ONEWEB-0427,2021-132AG,2026-07-10T08:14:21.677280,13.18686428,.00018654,87.9191,330.8303,91.2447,268.8898,0,U,50499,999,22466,.88927018E-4,.48E-6,0
ONEWEB-0429,2021-132AH,2026-07-10T07:54:55.209024,13.18687162,.00018493,87.9183,330.8556,101.0882,259.0458,0,U,50500,999,22463,.13027094E-3,.64E-6,0
ONEWEB-0430,2021-132AJ,2026-07-10T07:37:55.578432,13.18688391,.0001978,87.9182,330.8566,103.8739,256.2613,0,U,50501,999,22467,.67318212E-4,.39E-6,0
ONEWEB-0432,2021-132AK,2026-07-09T09:22:18.984864,13.18686360,.000231,87.9190,331.0270,100.0785,260.0608,0,U,50502,999,22450,.74701502E-4,.42E-6,0
ONEWEB-0440,2021-132AL,2026-07-10T08:07:03.936864,13.18686915,.00016011,87.9192,330.8503,104.7714,255.3596,0,U,50503,999,22462,.2229327E-3,.101E-5,0
ONEWEB-0450,2021-132AM,2026-07-09T15:34:11.872128,13.18686595,.00019099,87.9180,330.9902,103.2252,256.9093,0,U,50504,999,22456,-.72286392E-4,-.16E-6,0
ONEWEB-0410,2022-012A,2026-07-10T10:53:23.433216,13.17649809,.00020469,87.9150,1.2302,52.5028,307.6289,0,U,51622,999,21676,.12073651E-3,.6E-6,0
ONEWEB-0411,2022-012B,2026-07-10T23:45:02.096640,13.10377902,.0002226,87.8829,31.5245,97.6043,262.5338,0,U,51623,999,21240,.53629E-3,.2E-5,0
ONEWEB-0415,2022-012C,2026-07-10T23:40:08.054976,13.10378407,.000214,87.8822,31.5234,88.0693,272.0679,0,U,51624,999,21240,.78378E-4,.4E-6,0
